{"type": "FeatureCollection", "features": [ {"type": "Feature", "properties": {"norad_id": 66563, "name": "STARLINK-35437", "group": "last-30-days", "lat": 38.17706357844795, "lon": -157.88704929366224, "alt_km": 404.0477941664767, "timestamp": "2025-12-08T17:43:03.632606+00:00", "meta": {"OBJECT_NAME": "STARLINK-35437", "OBJECT_ID": "2025-268G", "EPOCH": "2025-12-08T06:00:02.999808", "MEAN_MOTION": 15.54792989, "ECCENTRICITY": 0.00013597, "INCLINATION": 43.0007, "RA_OF_ASC_NODE": 147.4432, "ARG_OF_PERICENTER": 270.3617, "MEAN_ANOMALY": 300.754, "EPHEMERIS_TYPE": 0, "CLASSIFICATION_TYPE": "U", "NORAD_CAT_ID": 66563, "ELEMENT_SET_NO": 999, "REV_AT_EPOCH": 394, "BSTAR": -0.033708343, "MEAN_MOTION_DOT": -0.02053856, "MEAN_MOTION_DDOT": 0}, "tle": {"line1": "1 66563U 25268G   25342.25003472 -.02053856  00000+0 -33708-1 0  9990", "line2": "2 66563  43.0007 147.4432 0001359 270.3617 300.7540 15.54792989  3945"}}, "geometry": {"type": "Point", "coordinates": [-157.88704929366224, 38.17706357844795]}}, {"type": "Feature", "properties": {"norad_id": 66564, "name": "STARLINK-35358", "group": "last-30-days", "lat": 38.85607156651975, "lon": -155.59938648517004, "alt_km": 403.98185586417367, "timestamp": "2025-12-08T17:43:03.632617+00:00", "meta": {"OBJECT_NAME": "STARLINK-35358", "OBJECT_ID": "2025-268H", "EPOCH": "2025-12-08T06:00:02.999808", "MEAN_MOTION": 15.54796958, "ECCENTRICITY": 0.00013354, "INCLINATION": 43.0001, "RA_OF_ASC_NODE": 147.4386, "ARG_OF_PERICENTER": 267.5051, "MEAN_ANOMALY": 305.5247, "EPHEMERIS_TYPE": 0, "CLASSIFICATION_TYPE": "U", "NORAD_CAT_ID": 66564, "ELEMENT_SET_NO": 999, "REV_AT_EPOCH": 389, "BSTAR": -0.033779603, "MEAN_MOTION_DOT": -0.02057985, "MEAN_MOTION_DDOT": 0}, "tle": {"line1": "1 66564U 25268H   25342.25003472 -.02057985  00000+0 -33780-1 0  9998", "line2": "2 66564  43.0001 147.4386 0001335 267.5051 305.5247 15.54796958  3893"}}, "geometry": {"type": "Point", "coordinates": [-155.59938648517004, 38.85607156651975]}}, {"type": "Feature", "properties": {"norad_id": 66565, "name": "STARLINK-35893", "group": "last-30-days", "lat": 39.49071722208635, "lon": -153.26655594089993, "alt_km": 403.87650238277, "timestamp": "2025-12-08T17:43:03.632629+00:00", "meta": {"OBJECT_NAME": "STARLINK-35893", "OBJECT_ID": "2025-268J", "EPOCH": "2025-12-08T06:00:02.999808", "MEAN_MOTION": 15.54787847, "ECCENTRICITY": 0.00013081, "INCLINATION": 43.0001, "RA_OF_ASC_NODE": 147.4337, "ARG_OF_PERICENTER": 265.9397, "MEAN_ANOMALY": 309.0112, "EPHEMERIS_TYPE": 0, "CLASSIFICATION_TYPE": "U", "NORAD_CAT_ID": 66565, "ELEMENT_SET_NO": 999, "REV_AT_EPOCH": 394, "BSTAR": -0.033541795, "MEAN_MOTION_DOT": -0.02044419, "MEAN_MOTION_DDOT": 0}, "tle": {"line1": "1 66565U 25268J   25342.25003472 -.02044419  00000+0 -33542-1 0  9993", "line2": "2 66565  43.0001 147.4337 0001308 265.9397 309.0112 15.54787847  3948"}}, "geometry": {"type": "Point", "coordinates": [-153.26655594089993, 39.49071722208635]}}, {"type": "Feature", "properties": {"norad_id": 66566, "name": "STARLINK-35871", "group": "last-30-days", "lat": 40.07700309428284, "lon": -150.89510514691926, "alt_km": 403.7997900247028, "timestamp": "2025-12-08T17:43:03.632642+00:00", "meta": {"OBJECT_NAME": "STARLINK-35871", "OBJECT_ID": "2025-268K", "EPOCH": "2025-12-08T06:00:02.999808", "MEAN_MOTION": 15.54790101, "ECCENTRICITY": 0.00012962, "INCLINATION": 43, "RA_OF_ASC_NODE": 147.4286, "ARG_OF_PERICENTER": 265.9898, "MEAN_ANOMALY": 310.8779, "EPHEMERIS_TYPE": 0, "CLASSIFICATION_TYPE": "U", "NORAD_CAT_ID": 66566, "ELEMENT_SET_NO": 999, "REV_AT_EPOCH": 394, "BSTAR": -0.033624248, "MEAN_MOTION_DOT": -0.02049049, "MEAN_MOTION_DDOT": 0}, "tle": {"line1": "1 66566U 25268K   25342.25003472 -.02049049  00000+0 -33624-1 0  9999", "line2": "2 66566  43.0000 147.4286 0001296 265.9898 310.8779 15.54790101  3949"}}, "geometry": {"type": "Point", "coordinates": [-150.89510514691926, 40.07700309428284]}}, {"type": "Feature", "properties": {"norad_id": 66567, "name": "STARLINK-35825", "group": "last-30-days", "lat": 40.61349847144405, "lon": -148.4850179264359, "alt_km": 403.7984161402037, "timestamp": "2025-12-08T17:43:03.632653+00:00", "meta": {"OBJECT_NAME": "STARLINK-35825", "OBJECT_ID": "2025-268L", "EPOCH": "2025-12-08T06:00:02.999808", "MEAN_MOTION": 15.54794346, "ECCENTRICITY": 0.00013393, "INCLINATION": 42.9998, "RA_OF_ASC_NODE": 147.4241, "ARG_OF_PERICENTER": 262.163, "MEAN_ANOMALY": 316.6199, "EPHEMERIS_TYPE": 0, "CLASSIFICATION_TYPE": "U", "NORAD_CAT_ID": 66567, "ELEMENT_SET_NO": 999, "REV_AT_EPOCH": 394, "BSTAR": -0.033733677, "MEAN_MOTION_DOT": -0.02055314, "MEAN_MOTION_DDOT": 0}, "tle": {"line1": "1 66567U 25268L   25342.25003472 -.02055314  00000+0 -33734-1 0  9994", "line2": "2 66567  42.9998 147.4241 0001339 262.1630 316.6199 15.54794346  3941"}}, "geometry": {"type": "Point", "coordinates": [-148.4850179264359, 40.61349847144405]}}, {"type": "Feature", "properties": {"norad_id": 66568, "name": "STARLINK-35803", "group": "last-30-days", "lat": 41.10025069732233, "lon": -146.03411243459266, "alt_km": 403.728304241823, "timestamp": "2025-12-08T17:43:03.632663+00:00", "meta": {"OBJECT_NAME": "STARLINK-35803", "OBJECT_ID": "2025-268M", "EPOCH": "2025-12-08T06:00:02.999808", "MEAN_MOTION": 15.54789347, "ECCENTRICITY": 0.00013687, "INCLINATION": 43.0001, "RA_OF_ASC_NODE": 147.4187, "ARG_OF_PERICENTER": 264.4096, "MEAN_ANOMALY": 316.2924, "EPHEMERIS_TYPE": 0, "CLASSIFICATION_TYPE": "U", "NORAD_CAT_ID": 66568, "ELEMENT_SET_NO": 999, "REV_AT_EPOCH": 394, "BSTAR": -0.03360923, "MEAN_MOTION_DOT": -0.02048227, "MEAN_MOTION_DDOT": 0}, "tle": {"line1": "1 66568U 25268M   25342.25003472 -.02048227  00000+0 -33609-1 0  9991", "line2": "2 66568  43.0001 147.4187 0001368 264.4096 316.2924 15.54789347  3948"}}, "geometry": {"type": "Point", "coordinates": [-146.03411243459266, 41.10025069732233]}}, {"type": "Feature", "properties": {"norad_id": 66569, "name": "STARLINK-35835", "group": "last-30-days", "lat": 41.53330168588179, "lon": -143.55041204270512, "alt_km": 403.6603142854128, "timestamp": "2025-12-08T17:43:03.632673+00:00", "meta": {"OBJECT_NAME": "STARLINK-35835", "OBJECT_ID": "2025-268N", "EPOCH": "2025-12-08T06:00:02.999808", "MEAN_MOTION": 15.54793786, "ECCENTRICITY": 0.00013372, "INCLINATION": 43, "RA_OF_ASC_NODE": 147.4139, "ARG_OF_PERICENTER": 263.3909, "MEAN_ANOMALY": 319.2255, "EPHEMERIS_TYPE": 0, "CLASSIFICATION_TYPE": "U", "NORAD_CAT_ID": 66569, "ELEMENT_SET_NO": 999, "REV_AT_EPOCH": 394, "BSTAR": -0.033698239, "MEAN_MOTION_DOT": -0.02053348, "MEAN_MOTION_DDOT": 0}, "tle": {"line1": "1 66569U 25268N   25342.25003472 -.02053348  00000+0 -33698-1 0  9990", "line2": "2 66569  43.0000 147.4139 0001337 263.3909 319.2255 15.54793786  3944"}}, "geometry": {"type": "Point", "coordinates": [-143.55041204270512, 41.53330168588179]}}, {"type": "Feature", "properties": {"norad_id": 66570, "name": "STARLINK-35834", "group": "last-30-days", "lat": 41.91282058092632, "lon": -141.03425195691204, "alt_km": 403.6445035987799, "timestamp": "2025-12-08T17:43:03.632683+00:00", "meta": {"OBJECT_NAME": "STARLINK-35834", "OBJECT_ID": "2025-268P", "EPOCH": "2025-12-08T06:00:02.999808", "MEAN_MOTION": 15.5479349, "ECCENTRICITY": 0.00014018, "INCLINATION": 43.0005, "RA_OF_ASC_NODE": 147.4086, "ARG_OF_PERICENTER": 265.1031, "MEAN_ANOMALY": 319.4301, "EPHEMERIS_TYPE": 0, "CLASSIFICATION_TYPE": "U", "NORAD_CAT_ID": 66570, "ELEMENT_SET_NO": 999, "REV_AT_EPOCH": 394, "BSTAR": -0.033683928, "MEAN_MOTION_DOT": -0.0205259, "MEAN_MOTION_DDOT": 0}, "tle": {"line1": "1 66570U 25268P   25342.25003472 -.02052590  00000+0 -33684-1 0  9995", "line2": "2 66570  43.0005 147.4086 0001401 265.1031 319.4301 15.54793490  3946"}}, "geometry": {"type": "Point", "coordinates": [-141.03425195691204, 41.91282058092632]}}, {"type": "Feature", "properties": {"norad_id": 66571, "name": "STARLINK-35836", "group": "last-30-days", "lat": 42.23609009324531, "lon": -138.48934420505037, "alt_km": 403.5507393525313, "timestamp": "2025-12-08T17:43:03.632698+00:00", "meta": {"OBJECT_NAME": "STARLINK-35836", "OBJECT_ID": "2025-268Q", "EPOCH": "2025-12-08T06:00:02.999808", "MEAN_MOTION": 15.54786496, "ECCENTRICITY": 0.00013366, "INCLINATION": 43.0005, "RA_OF_ASC_NODE": 147.4039, "ARG_OF_PERICENTER": 261.9666, "MEAN_ANOMALY": 324.4867, "EPHEMERIS_TYPE": 0, "CLASSIFICATION_TYPE": "U", "NORAD_CAT_ID": 66571, "ELEMENT_SET_NO": 999, "REV_AT_EPOCH": 394, "BSTAR": -0.033486274, "MEAN_MOTION_DOT": -0.02041324, "MEAN_MOTION_DDOT": 0}, "tle": {"line1": "1 66571U 25268Q   25342.25003472 -.02041324  00000+0 -33486-1 0  9999", "line2": "2 66571  43.0005 147.4039 0001336 261.9666 324.4867 15.54786496  3941"}}, "geometry": {"type": "Point", "coordinates": [-138.48934420505037, 42.23609009324531]}}, {"type": "Feature", "properties": {"norad_id": 66572, "name": "STARLINK-35870", "group": "last-30-days", "lat": 42.50182386691371, "lon": -135.92503391975563, "alt_km": 403.6414444624379, "timestamp": "2025-12-08T17:43:03.632710+00:00", "meta": {"OBJECT_NAME": "STARLINK-35870", "OBJECT_ID": "2025-268R", "EPOCH": "2025-12-08T06:00:02.999808", "MEAN_MOTION": 15.54792416, "ECCENTRICITY": 0.00014772, "INCLINATION": 43.0005, "RA_OF_ASC_NODE": 147.4004, "ARG_OF_PERICENTER": 262.3218, "MEAN_ANOMALY": 326.0477, "EPHEMERIS_TYPE": 0, "CLASSIFICATION_TYPE": "U", "NORAD_CAT_ID": 66572, "ELEMENT_SET_NO": 999, "REV_AT_EPOCH": 394, "BSTAR": -0.033714554, "MEAN_MOTION_DOT": -0.0205423, "MEAN_MOTION_DDOT": 0}, "tle": {"line1": "1 66572U 25268R   25342.25003472 -.02054230  00000+0 -33715-1 0  9995", "line2": "2 66572  43.0005 147.4004 0001477 262.3218 326.0477 15.54792416  3942"}}, "geometry": {"type": "Point", "coordinates": [-135.92503391975563, 42.50182386691371]}}]}